ONEWEB-0319             
1 49105U 21075AG  25081.73288115  .00000018  00000+0  12971-4 0  9997
2 49105  87.9006  95.8108 0001772 105.9961 254.1366 13.17650384174153
ONEWEB-0323             
1 49106U 21075AH  25081.71666940 -.00000580  00000+0 -16474-2 0  9998
2 49106  87.8798  80.4965 0001709 112.5599 247.5710 13.12442933175337
ONEWEB-0329             
1 49107U 21075AJ  25081.96913804  .00000092  00000+0  20321-3 0  9993
2 49107  87.9002  95.7681 0001739  95.3977 264.7352 13.17649955174163
ONEWEB-0330             
1 49108U 21075AK  25081.74301240 -.00000001  00000+0 -36162-4 0  9998
2 49108  87.9004  95.8155 0001679  90.0453 270.0871 13.17649966174176
ONEWEB-0292             
1 49186U 21083A   25081.88952237 -.00001270  00000+0 -35147-2 0  9995
2 49186  87.8942  49.9568 0002193  93.2313 266.9067 13.13454995171688
ONEWEB-0303             
1 49187U 21083B   25081.91566284  .00000013  00000+0  36470-6 0  9999
2 49187  87.9072  65.1701 0001903  93.3815 266.7535 13.18686301170500
ONEWEB-0306             
1 49188U 21083C   25081.90615589  .00000101  00000+0  22385-3 0  9997
2 49188  87.9072  65.1573 0001859  80.7224 279.4118 13.18687098170548
ONEWEB-0307             
1 49189U 21083D   25081.88356752  .00000237  00000+0  61284-3 0  9990
2 49189  87.8938  49.9596 0001762  73.0806 287.0516 13.13468727171682
